ORBCOMM FM33            
1 25983U 99065D   25064.64021852  .00002088  00000+0  70727-3 0  9994
2 25983  45.0273 131.1311 0010715 259.1271 100.8372 14.39573586321145
ORBCOMM FM36            
1 25984U 99065E   25064.74651525  .00002596  00000+0  90283-3 0  9995
2 25984  45.0374 220.9632 0004208 155.5152 204.5897 14.37667810319534
ORBCOMM FM35            
1 25985U 99065F   25064.79280441  .00001843  00000+0  66744-3 0  9995
2 25985  45.0387 224.9772 0004236 225.6544 134.3957 14.36705317319916
ORBCOMM FM34            
1 25986U 99065G   25064.83088212  .00001801  00000+0  65243-3 0  9990
2 25986  45.0380 225.2981 0004911 184.6473 175.4330 14.36752189320036
ORBCOMM FM38            
1 33060U 08031A   25064.58490248  .00003166  00000+0  43571-3 0  9999
2 33060  48.4394  88.7563 0006251 310.8465  49.1908 14.80574136899392
ORBCOMM FM41            
1 33061U 08031B   25064.79458039  .00002769  00000+0  38797-3 0  9997
2 33061  48.4429  95.1910 0005482 298.2371 232.8760 14.80194717898917
ORBCOMM FM29            
1 33062U 08031C   25064.50979027  .00003437  00000+0  47416-3 0  9993
2 33062  48.4379 104.4690 0007274 295.9653 208.2343 14.80252840898780
ORBCOMM FM39            
1 33063U 08031D   25064.48209362  .00002795  00000+0  40326-3 0  9998
2 33063  48.4391 127.7646 0008142 271.2383  88.7599 14.78903252898440
